SAUDISAT 1C (SO-50)     
1 27607U 02058C   24026.15308435  .00002320  00000+0  33353-3 0  9996
2 27607  64.5566 300.9268 0042109 171.2021 188.9830 14.78243920135381
CORIOLIS                
1 27640U 03001A   24025.92000505  .00000282  00000+0  15457-3 0  9993
2 27640  98.7151  35.4261 0013685 203.8238 156.2306 14.19386487 90319
CUTE-1 (CO-55)          
1 27844U 03031E   24025.94755385  .00000676  00000+0  31929-3 0  9996
2 27844  98.6788  34.9826 0009402 194.3864 165.7048 14.23052641 67445
CUBESAT XI-IV (CO-57)   
1 27848U 03031J   24025.96767809  .00000570  00000+0  27499-3 0  9996
2 27848  98.6822  35.3224 0009074 210.5481 149.5169 14.22524849 67229
MOZHAYETS 4 (RS-22)     
1 27939U 03042A   24026.50961674  .00002544  00000+0  43951-3 0  9990
2 27939  98.2682 180.6983 0012804 146.8483 304.2109 14.69264497 87322
IRS-P6 (RESOURCESAT-1)  
1 28051U 03046A   24026.40569057  .00000795  00000+0  28450-3 0  9991
2 28051  98.3230  89.0222 0064337  75.0655 346.7944 14.35405836 55317
SAUDISAT 2              
1 28371U 04025F   24026.45907708  .00000840  00000+0  20420-3 0  9998
2 28371  98.4648 357.5023 0026479  97.1543 263.2666 14.55248411 38786
COSMOS 2407             
1 28380U 04028A   24026.44477875  .00000086  00000+0  72308-4 0  9992
2 28380  82.9620   1.0959 0039407 171.2582 302.4357 13.76188767980020
COSMOS 2414             
1 28521U 05002A   24026.39357927  .00000117  00000+0  85608-4 0  9993
2 28521  82.9522 343.7058 0039024 299.1906  60.5356 13.87747293963084
INMARSAT 4-F1           
1 28628U 05009A   24026.43050850  .00000034  00000+0  00000+0 0  9994
2 28628   4.1303  40.2495 0002045 264.2913 153.7341  1.00272758 68911
HAMSAT (VO-52)          
1 28650U 05017B   24025.91259835  .00007097  00000+0  63895-3 0  9995
2 28650  97.9744   9.4295 0022487  77.0324 283.3406 14.95737427 15627
NOAA 18                 
1 28654U 05018A   24026.39944656  .00000382  00000+0  22763-3 0  9994
2 28654  98.8886 104.4958 0015201 107.7611 252.5222 14.13109422963091
SJ-7                    
1 28737U 05024A   24025.95858282  .00007449  00000+0  55237-3 0  9996
2 28737  97.7677  30.6509 0023381 141.2465 219.0442 15.03164080 16035
CUBESAT XI-V            
1 28895U 05043F   24025.89266741  .00003232  00000+0  58699-3 0  9999
2 28895  98.1788 161.8192 0017084  89.8434 270.4728 14.66786928973443
CLOUDSAT                
1 29107U 06016A   24026.51599769  .00001677  00000+0  28514-3 0  9990
2 29107  98.4015   5.5382 0004797 283.6119  76.4552 14.70498837945220
CALIPSO                 
1 29108U 06016B   24025.90171696  .00002884  00000+0  54668-3 0  9998
2 29108  98.4034   4.4177 0001508  90.0094 270.1281 14.65077348944967
HINODE (SOLAR-B)        
1 29479U 06041A   24025.96519550  .00001282  00000+0  24226-3 0  9996
2 29479  98.0972  43.2867 0018261 169.6157 190.5428 14.66002300926795
METOP-A                 
1 29499U 06044A   24025.93429662  .00002891  00000+0  37596-3 0  9993
2 29499  98.3732  97.4150 0190105 321.5599 142.0433 14.69691871896881
SHIJIAN-6 02B (SJ-6 02B)
1 29506U 06046B   24026.46493067  .00003386  00000+0  30331-3 0  9993
2 29506  97.7526  52.7012 0003110  73.6360 286.5203 14.96473004939989
DMSP 5D-3 F17 (USA 191) 
1 29522U 06050A   24026.43471848  .00000357  00000+0  20925-3 0  9999
2 29522  98.7489  39.9320 0010396  32.0252 328.1551 14.14381686889019
LAPAN-TUBSAT            
1 29709U 07001A   24026.45117490  .00001362  00000+0  17168-3 0  9997
2 29709  98.0510   0.2558 0013429 139.9545 220.2661 14.83615424921646
CARTOSAT-2 (IRS-P7)     
1 29710U 07001B   24026.44749409  .00404505  71427-4  79036-3 0  9993
2 29710  97.8776 196.5553 0029304  87.4174 273.0456 15.99353307927288
HAIYANG-1B              
1 31113U 07010A   24025.92423872  .00000227  00000+0  10286-3 0  9997
2 31113  98.2948  34.5067 0012516 271.3183  88.6567 14.30532428875750
BEIDOU-2 M1             
1 31115U 07011A   24023.74326613  .00000042  00000+0  00000+0 0  9997
2 31115  51.3305 248.3724 0002986  15.0231 345.0648  1.77349241 60629
CAPE-1                  
1 31130U 07012P   24026.41289091  .00003299  00000+0  66788-3 0  9996
2 31130  98.3352 335.8648 0090144 270.2634  88.8236 14.59452316890764
AGILE                   
1 31135U 07013A   24021.96400288  .00206907  00000+0  59958-3 0  9992
2 31135   2.4646 209.6114 0002565  63.6321 296.3997 15.90884781567788
AIM                     
1 31304U 07015A   24025.84608056  .00053645  00000+0  11475-2 0  9996
2 31304  97.8922 347.1975 0005883 112.3103 247.8768 15.44621616920864
CBERS 2B                
1 32062U 07042A   24026.51556193  .00000634  00000+0  21154-3 0  9993
2 32062  98.2835 341.5169 0032699  84.0959  33.8830 14.40384105859066
COSMO-SKYMED 2          
1 32376U 07059A   24026.45251790  .00001186  00000+0  15547-3 0  9999
2 32376  97.8807 211.6998 0001457  81.9675 278.1704 14.82149458872801
CARTOSAT-2A             
1 32783U 08021A   24026.39578360  .00001569  00000+0  22034-3 0  9993
2 32783  97.8876  87.8727 0013440  66.1904 294.0715 14.78739219849906
CUTE-1.7+APD II (CO-65) 
1 32785U 08021C   24026.51951063  .00007991  00000+0  74026-3 0  9997
2 32785  97.7373 353.4315 0013574  82.8912 277.3851 14.94683508854229
COMPASS-1               
1 32787U 08021E   24025.90504167  .00016353  00000+0  11004-2 0  9998
2 32787  97.6076   3.3165 0010366 345.1224  14.9697 15.06759931856123
AAUSAT-II               
1 32788U 08021F   24025.47503719  .00020220  00000+0  12264-2 0  9990
2 32788  97.5835   6.2069 0005132 334.4920  25.6056 15.10562704856583
SEEDS II (CO-66)        
1 32791U 08021J   24025.91181023  .00010992  00000+0  87654-3 0  9994
2 32791  97.6799 358.3819 0009475  46.4262 313.7747 15.00455430855093
YUBILEINY (RS-30)       
1 32953U 08025A   24026.45977688  .00000017  00000+0  53334-4 0  9994
2 32953  82.5040 178.2407 0019703  58.8487 301.4522 12.43134813711390
FENGYUN 3A              
1 32958U 08026A   24026.46281052  .00000315  00000+0  17118-3 0  9994
2 32958  98.5870 337.8549 0009589 120.5439 239.6685 14.19002979811720
HUANJING 1A (HJ-1A)     
1 33320U 08041A   24026.46513266  .00002369  00000+0  32451-3 0  9998
2 33320  97.6356  40.5818 0021890 115.1937 245.1548 14.79191972829257
HUANJING 1B (HJ-1B)     
1 33321U 08041B   24026.44119588  .00001806  00000+0  24402-3 0  9998
2 33321  97.6336  45.0709 0039188 160.3451 199.9283 14.79693983829269
SHIJIAN-6 03A (SJ-6 03A)
1 33408U 08053A   24025.96352238  .00007246  00000+0  56665-3 0  9994
2 33408  97.8740  24.7971 0020312 102.3934 257.9564 15.01216808831209
SHIJIAN-6 03B (SJ-6 03B)
1 33409U 08053B   24026.50318487  .00003672  00000+0  31676-3 0  9998
2 33409  97.8777  22.9006 0016439  75.4558 284.8486 14.97827225831797
CHUANGXIN 1-02 (CX-1-02)
1 33434U 08056B   24026.48061733  .00000217  00000+0  10188-3 0  9992
2 33434  98.6843  47.0162 0014401 176.4987 183.6298 14.29737482794283
PRISM (HITOMI)          
1 33493U 09002B   24025.47457400  .00017228  00000+0  98294-3 0  9991
2 33493  98.2268  61.3864 0014740  23.5905 336.5997 15.12744176817272
STARS (KUKAI)           
1 33498U 09002G   24025.75237384  .00005917  00000+0  71820-3 0  9992
2 33498  98.1267 297.2974 0010719 146.0871 214.1030 14.83898371808398
KKS-1 (KISEKI)          
1 33499U 09002H   24025.93326478  .00002810  00000+0  39663-3 0  9994
2 33499  98.1533 285.9196 0007476 226.4212 133.6379 14.78008400806954
NOAA 19                 
1 33591U 09005A   24026.47275119  .00000347  00000+0  21094-3 0  9997
2 33591  99.0698  80.6353 0013384 338.0426  22.0171 14.12914564771470
YAOGAN 6                
1 34839U 09021A   24026.48485000  .00020891  00000+0  48867-3 0  9997
2 34839  97.1550 355.9071 0019172 347.6398  12.4376 15.41971961821420
UK-DMC 2                
1 35683U 09041C   24026.41975679  .00001831  00000+0  29380-3 0  9998
2 35683  97.7571 180.1879 0001347  99.0717 261.0644 14.72796179777990
METEOR-M 1              
1 35865U 09049A   24026.44224272  .00000284  00000+0  14639-3 0  9999
2 35865  98.6136 350.7574 0001826 345.8504  14.2622 14.22622995745273
OCEANSAT-2              
1 35931U 09051A   24026.43638437  .00000053  00000+0  62114-4 0  9993
2 35931  98.2865  88.8868 0017035 174.9208 185.2135 13.99421856757253
SWISSCUBE               
1 35932U 09051B   24026.15068968  .00002215  00000+0  48733-3 0  9991
2 35932  98.4917 266.5034 0008271  45.7119 314.4757 14.58476726761749
BEESAT-1                
1 35933U 09051C   24025.65295369  .00001933  00000+0  42844-3 0  9996
2 35933  98.4848 267.0814 0006713  59.0026 301.1831 14.58287447761701
ITUPSAT1                
1 35935U 09051E   24025.97901226  .00001646  00000+0  37439-3 0  9994
2 35935  98.4946 267.2696 0009053  61.7590 298.4520 14.57286161761432
DMSP 5D-3 F18 (USA 210) 
1 35951U 09057A   24026.47407747  .00000525  00000+0  29941-3 0  9997
2 35951  98.7972   3.8840 0010492 208.7793 151.2803 14.13978055736191
PROBA-2                 
1 36037U 09059B   24025.50773559  .00000736  00000+0  18598-3 0  9995
2 36037  98.2255 211.3969 0014509  97.6415 262.6430 14.53770361754538
YAOGAN 7                
1 36110U 09069A   24026.24638526  .00001194  00000+0  18059-3 0  9995
2 36110  98.1271 261.4682 0024991 329.3917  30.5832 14.75930387760808
XIWANG-1 (HOPE-1)       
1 36122U 09072B   24026.45619723 -.00000006  00000+0  98965-4 0  9990
2 36122 100.2742 348.6076 0008093  72.1185 288.0811 13.16394262678286
RADUGA-1M 2             
1 36358U 10002A   24025.92062611 -.00000184  00000+0  00000+0 0  9990
2 36358   1.3488  90.4274 0003146 193.3724 257.3336  1.00273452 41334
COSMOS 2463             
1 36519U 10017A   24026.51593286  .00000082  00000+0  73339-4 0  9994
2 36519  82.9624 170.8582 0036763  33.2582  36.7492 13.71539550688390
CARTOSAT-2B             
1 36795U 10035A   24026.43276443  .00001572  00000+0  22102-3 0  9990
2 36795  97.8819  87.6495 0013559 136.6618 223.5662 14.78686549730955
